     2.10           G: GLONASS NAV DATA                     RINEX VERSION / TYPE
teqc  2015Jun23                         20211001 01:25:48UTCPGM / RUN BY / DATE
Linux 2.4.21-27.ELsmp|Opteron|gcc -static|Linux x86_64|=+   COMMENT
  2021     9     7   -4.656612873077D-10                    CORR TO SYSTEM TIME
                                                            END OF HEADER
20 21  9  8 12 15  0.0-5.552079528570D-05-0.000000000000D+00 4.320000000000D+04
   -4.936174316406D+03-2.955717086792D+00-1.862645149231D-09 0.000000000000D+00
    9.129831054688D+03-1.218684196472D+00-9.313225746155D-10 2.000000000000D+00
   -2.329624267578D+04 1.514759063721D-01 2.793967723846D-09 0.000000000000D+00
21 21  9  8 12 15  0.0-2.376697957516D-04-2.728484105319D-12 4.320000000000D+04
    1.480664550781D+04-1.977955818176D+00 3.725290298462D-09 0.000000000000D+00
    1.332157666016D+04-9.407320022583D-01-9.313225746155D-10 4.000000000000D+00
   -1.591689257812D+04-2.631115913391D+00 2.793967723846D-09 0.000000000000D+00
 7 21  9  8 12 15  0.0-4.130508750677D-05 0.000000000000D+00 4.401000000000D+04
    2.507112304688D+03-2.350731849670D+00 9.313225746155D-10 0.000000000000D+00
    1.178230322266D+04 1.981400489807D+00-9.313225746155D-10 5.000000000000D+00
    2.251065722656D+04-7.806024551392D-01-2.793967723846D-09 0.000000000000D+00
 6 21  9  8 12 45  0.0-2.454966306686D-06-1.818989403546D-12 4.500000000000D+04
   -1.363052539062D+04-5.294799804688D-01-2.793967723846D-09 0.000000000000D+00
    2.039723779297D+04 8.020830154419D-01-1.862645149231D-09-4.000000000000D+00
    6.929586914062D+03-3.397352218628D+00-9.313225746155D-10 0.000000000000D+00
 9 21  9  8 12 45  0.0 1.219101250172D-05 2.728484105319D-12 4.500000000000D+04
   -2.197283203125D+03-6.132030487061D-01-0.000000000000D+00 0.000000000000D+00
    1.946008935547D+04-2.153521537781D+00-1.862645149231D-09-2.000000000000D+00
    1.641025830078D+04 2.467983245850D+00-1.862645149231D-09 0.000000000000D+00
 5 21  9  8 12 45  0.0 7.859244942665D-05 9.094947017729D-13 4.500000000000D+04
   -1.893729589844D+04 1.292075157166D+00-4.656612873077D-09 0.000000000000D+00
    1.155498583984D+04-1.149963378906D+00-9.313225746155D-10 1.000000000000D+00
   -1.256264599609D+04-3.006028175354D+00 9.313225746155D-10 0.000000000000D+00
 7 21  9  8 12 45  0.0-4.130415618420D-05 0.000000000000D+00 4.500000000000D+04
   -1.278676757812D+03-1.830305099487D+00-0.000000000000D+00 0.000000000000D+00
    1.547390771484D+04 2.076738357544D+00-1.862645149231D-09 5.000000000000D+00
    2.025563720703D+04-1.708921432495D+00-2.793967723846D-09 0.000000000000D+00
10 21  9  8 12 45  0.0-7.477775216103D-05-9.094947017729D-13 4.500000000000D+04
    7.082772460938D+03 7.258605957031D-02 1.862645149231D-09 0.000000000000D+00
    2.441390478516D+04-2.574968338013D-01-2.793967723846D-09-7.000000000000D+00
    1.623562011719D+03 3.562005043030D+00-0.000000000000D+00 0.000000000000D+00
 6 21  9  8 13 15  0.0-2.459622919559D-06-1.818989403546D-12 4.680000000000D+04
   -1.402092138672D+04 6.936931610107D-02-3.725290298462D-09 0.000000000000D+00
    2.128462158203D+04 1.526632308960D-01-1.862645149231D-09-4.000000000000D+00
    6.251054687500D+02-3.562047004700D+00-0.000000000000D+00 0.000000000000D+00
 9 21  9  8 13 15  0.0 1.219566911459D-05 2.728484105319D-12 4.680000000000D+04
   -3.763644531250D+03-1.133947372437D+00-9.313225746155D-10 0.000000000000D+00
    1.522386816406D+04-2.506937980652D+00-9.313225746155D-10-2.000000000000D+00
    2.016413134766D+04 1.675953865051D+00-2.793967723846D-09 0.000000000000D+00
 5 21  9  8 13 15  0.0 7.859338074923D-05 9.094947017729D-13 4.680000000000D+04
   -1.639061474609D+04 1.491645812988D+00-4.656612873077D-09 0.000000000000D+00
    8.832183105469D+03-1.868778228760D+00-0.000000000000D+00 1.000000000000D+00
   -1.741703320312D+04-2.352681159973D+00 1.862645149231D-09 0.000000000000D+00
 7 21  9  8 13 15  0.0-4.130322486162D-05 0.000000000000D+00 4.680000000000D+04
   -4.022105957031D+03-1.210497856140D+00-9.313225746155D-10 0.000000000000D+00
    1.909147509766D+04 1.895106315613D+00-1.862645149231D-09 5.000000000000D+00
    1.643724218750D+04-2.506395339966D+00-1.862645149231D-09 0.000000000000D+00
10 21  9  8 13 15  0.0-7.477868348360D-05-0.000000000000D+00 4.680000000000D+04
    6.872900390625D+03-3.387870788574D-01 0.000000000000D+00 0.000000000000D+00
    2.322659814453D+04-1.036914825439D+00-2.793967723846D-09-7.000000000000D+00
    7.888943359375D+03 3.354142189026D+00-9.313225746155D-10 0.000000000000D+00
 6 21  9  8 13 45  0.0-2.464279532433D-06-1.818989403546D-12 4.860000000000D+04
   -1.349829199219D+04 4.736299514771D-01-4.656612873077D-09 0.000000000000D+00
    2.086149462891D+04-6.380891799927D-01-9.313225746155D-10-4.000000000000D+00
   -5.727822753906D+03-3.450868606567D+00 0.000000000000D+00 0.000000000000D+00
 9 21  9  8 13 45  0.0 1.220032572746D-05 2.728484105319D-12 4.860000000000D+04
   -6.271736816406D+03-1.641703605652D+00-1.862645149231D-09 0.000000000000D+00
    1.060787500000D+04-2.573928833008D+00-0.000000000000D+00-2.000000000000D+00
    2.236568945312D+04 7.542572021484D-01-2.793967723846D-09 0.000000000000D+00
 7 21  9  8 13 45  0.0-4.130322486162D-05 0.000000000000D+00 4.860000000000D+04
   -5.643257812500D+03-6.017980575562D-01-2.793967723846D-09 0.000000000000D+00
    2.212850781250D+04 1.435379981995D+00-1.862645149231D-09 5.000000000000D+00
    1.134857666016D+04-3.111089706421D+00-9.313225746155D-10 0.000000000000D+00
10 21  9  8 13 45  0.0-7.478054612875D-05-0.000000000000D+00 4.860000000000D+04
    5.766799316406D+03-9.096612930298D-01-0.000000000000D+00 0.000000000000D+00
    2.079767480469D+04-1.623008728027D+00-1.862645149231D-09-7.000000000000D+00
    1.354193017578D+04 2.886063575745D+00-1.862645149231D-09 0.000000000000D+00
21 21  9  8 13 45  0.0-2.376856282353D-04-2.728484105319D-12 4.914000000000D+04
   -2.159926757812D+02-3.187312126160D+00-9.313225746155D-10 0.000000000000D+00
    1.047021142578D+04 9.758949279785D-02-9.313225746155D-10 4.000000000000D+00
   -2.326291650391D+04 7.019424438477D-02 2.793967723846D-09 0.000000000000D+00
 8 21  9  8 13 45  0.0-6.080977618694D-05 0.000000000000D+00 4.968000000000D+04
    5.419580078125D+03-1.354553222656D+00 0.000000000000D+00 0.000000000000D+00
    1.196968847656D+04 2.662876129150D+00-1.862645149231D-09 6.000000000000D+00
    2.190901220703D+04-1.124403953552D+00-2.793967723846D-09 0.000000000000D+00
 6 21  9  8 14 15  0.0-2.468004822731D-06-1.818989403546D-12 5.040000000000D+04
   -1.246228125000D+04 6.353397369385D-01-4.656612873077D-09 0.000000000000D+00
    1.896603027344D+04-1.464323043823D+00 0.000000000000D+00-4.000000000000D+00
   -1.163740673828D+04-3.072699546814D+00 9.313225746155D-10 0.000000000000D+00
 8 21  9  8 14 15  0.0-6.080884486437D-05 0.000000000000D+00 5.040000000000D+04
    3.460000488281D+03-8.203468322754D-01-9.313225746155D-10 0.000000000000D+00
    1.663303515625D+04 2.468989372253D+00-1.862645149231D-09 6.000000000000D+00
    1.906785302734D+04-2.012188911438D+00-1.862645149231D-09 0.000000000000D+00
 7 21  9  8 14 15  0.0-4.130136221647D-05-0.000000000000D+00 5.040000000000D+04
   -6.258314453125D+03-1.085214614868D-01-3.725290298462D-09 0.000000000000D+00
    2.411774804688D+04 7.418212890625D-01-9.313225746155D-10 5.000000000000D+00
    5.381767578125D+03-3.475657463074D+00-9.313225746155D-10 0.000000000000D+00
10 21  9  8 14 15  0.0-7.478240877390D-05-0.000000000000D+00 5.040000000000D+04
    3.558797851562D+03-1.545547485352D+00-9.313225746155D-10 0.000000000000D+00
    1.753994189453D+04-1.950273513794D+00-1.862645149231D-09-7.000000000000D+00
    1.814435107422D+04 2.194537162781D+00-1.862645149231D-09 0.000000000000D+00
21 21  9  8 14 15  0.0-2.376902848482D-04-2.728484105319D-12 5.040000000000D+04
   -5.828705078125D+03-2.997395515442D+00-2.793967723846D-09 0.000000000000D+00
    1.106935644531D+04 5.564727783203D-01 0.000000000000D+00 4.000000000000D+00
   -2.223961621094D+04 1.059332847595D+00 1.862645149231D-09 0.000000000000D+00
20 21  9  8 14 15  0.0-5.552638322115D-05-0.000000000000D+00 5.076000000000D+04
   -2.261007128906D+04-1.242401123047D+00-5.587935447693D-09 0.000000000000D+00
    7.157702636719D+03 4.003133773804D-01 1.862645149231D-09 2.000000000000D+00
   -9.347436035156D+03 3.312966346741D+00 0.000000000000D+00 0.000000000000D+00
 6 21  9  8 14 45  0.0-2.472661435604D-06-1.818989403546D-12 5.220000000000D+04
   -1.135992089844D+04 5.504598617554D-01-3.725290298462D-09 0.000000000000D+00
    1.563766503906D+04-2.211334228516D+00 9.313225746155D-10-4.000000000000D+00
   -1.664673974609D+04-2.457145690918D+00 9.313225746155D-10 0.000000000000D+00
 8 21  9  8 14 45  0.0-6.080884486437D-05 0.000000000000D+00 5.220000000000D+04
    2.442368164062D+03-3.257360458374D-01-2.793967723846D-09 0.000000000000D+00
    2.068572412109D+04 1.989408493042D+00-9.313225746155D-10 6.000000000000D+00
    1.475777539062D+04-2.745951652527D+00-1.862645149231D-09 0.000000000000D+00
 7 21  9  8 14 45  0.0-4.130229353905D-05-0.000000000000D+00 5.220000000000D+04
   -6.152359375000D+03 1.886453628540D-01-4.656612873077D-09 0.000000000000D+00
    2.470815039062D+04-1.023797988892D-01 0.000000000000D+00 5.000000000000D+00
   -1.001947265625D+03-3.571192741394D+00-0.000000000000D+00 0.000000000000D+00
10 21  9  8 14 45  0.0-7.478334009647D-05-0.000000000000D+00 5.220000000000D+04
    2.298139648438D+02-2.136563301086D+00-1.862645149231D-09 0.000000000000D+00
    1.394643652344D+04-1.996191978455D+00-0.000000000000D+00-7.000000000000D+00
    2.134041064453D+04 1.333694458008D+00-2.793967723846D-09 0.000000000000D+00
21 21  9  8 14 45  0.0-2.376949414611D-04-2.728484105319D-12 5.220000000000D+04
   -1.083388281250D+04-2.521046638489D+00-3.725290298462D-09 0.000000000000D+00
    1.240025634766D+04 8.939685821533D-01 9.313225746155D-10 4.000000000000D+00
   -1.949882763672D+04 1.966171264648D+00 1.862645149231D-09 0.000000000000D+00
